CCSDS_OMM_VERS = 2.0
CREATION_DATE  = 
ORIGINATOR     = 

OBJECT_NAME    = STARLINK-36736
OBJECT_ID      = 2026-036H
CENTER_NAME    = EARTH
REF_FRAME      = TEME
TIME_SYSTEM    = UTC
MEAN_ELEMENT_THEORY = SGP/SGP4

EPOCH          = 2026-02-27T04:00:01.999584
MEAN_MOTION    = 15.97331972
ECCENTRICITY   = .0001863
INCLINATION    = 42.9972
RA_OF_ASC_NODE = 314.5805
ARG_OF_PERICENTER = 273.8272
MEAN_ANOMALY   = 325.1909

EPHEMERIS_TYPE = 0
CLASSIFICATION_TYPE = U
NORAD_CAT_ID   = 67911
ELEMENT_SET_NO = 999
REV_AT_EPOCH   = 195
BSTAR          = -.31737E-2
MEAN_MOTION_DOT = -.1449846E-1
MEAN_MOTION_DDOT = .62884E-3

CCSDS_OMM_VERS = 2.0
CREATION_DATE  = 
ORIGINATOR     = 

OBJECT_NAME    = STARLINK-36676
OBJECT_ID      = 2026-036J
CENTER_NAME    = EARTH
REF_FRAME      = TEME
TIME_SYSTEM    = UTC
MEAN_ELEMENT_THEORY = SGP/SGP4

EPOCH          = 2026-02-27T04:00:01.999584
MEAN_MOTION    = 15.97460430
ECCENTRICITY   = .0001839
INCLINATION    = 42.9973
RA_OF_ASC_NODE = 314.5773
ARG_OF_PERICENTER = 273.1099
MEAN_ANOMALY   = 327.2188

EPHEMERIS_TYPE = 0
CLASSIFICATION_TYPE = U
NORAD_CAT_ID   = 67912
ELEMENT_SET_NO = 999
REV_AT_EPOCH   = 195
BSTAR          = -.31134E-2
MEAN_MOTION_DOT = -.1432708E-1
MEAN_MOTION_DDOT = .61608E-3

CCSDS_OMM_VERS = 2.0
CREATION_DATE  = 
ORIGINATOR     = 

OBJECT_NAME    = STARLINK-36690
OBJECT_ID      = 2026-036K
CENTER_NAME    = EARTH
REF_FRAME      = TEME
TIME_SYSTEM    = UTC
MEAN_ELEMENT_THEORY = SGP/SGP4

EPOCH          = 2026-02-27T04:00:01.999584
MEAN_MOTION    = 15.97606522
ECCENTRICITY   = .0001841
INCLINATION    = 42.9973
RA_OF_ASC_NODE = 314.5735
ARG_OF_PERICENTER = 270.4126
MEAN_ANOMALY   = 331.4534

EPHEMERIS_TYPE = 0
CLASSIFICATION_TYPE = U
NORAD_CAT_ID   = 67913
ELEMENT_SET_NO = 999
REV_AT_EPOCH   = 195
BSTAR          = -.30644E-2
MEAN_MOTION_DOT = -.1421775E-1
MEAN_MOTION_DDOT = .60841E-3

CCSDS_OMM_VERS = 2.0
CREATION_DATE  = 
ORIGINATOR     = 

OBJECT_NAME    = STARLINK-36724
OBJECT_ID      = 2026-036L
CENTER_NAME    = EARTH
REF_FRAME      = TEME
TIME_SYSTEM    = UTC
MEAN_ELEMENT_THEORY = SGP/SGP4

EPOCH          = 2026-02-27T04:00:01.999584
MEAN_MOTION    = 15.97885373
ECCENTRICITY   = .0001897
INCLINATION    = 42.9972
RA_OF_ASC_NODE = 314.5661
ARG_OF_PERICENTER = 272.8625
MEAN_ANOMALY   = 331.8066

EPHEMERIS_TYPE = 0
CLASSIFICATION_TYPE = U
NORAD_CAT_ID   = 67914
ELEMENT_SET_NO = 999
REV_AT_EPOCH   = 195
BSTAR          = -.30102E-2
MEAN_MOTION_DOT = -.1418599E-1
MEAN_MOTION_DDOT = .60768E-3

CCSDS_OMM_VERS = 2.0
CREATION_DATE  = 
ORIGINATOR     = 

OBJECT_NAME    = STARLINK-36723
OBJECT_ID      = 2026-036M
CENTER_NAME    = EARTH
REF_FRAME      = TEME
TIME_SYSTEM    = UTC
MEAN_ELEMENT_THEORY = SGP/SGP4

EPOCH          = 2026-02-27T04:00:01.999584
MEAN_MOTION    = 15.97760807
ECCENTRICITY   = .000191
INCLINATION    = 42.9974
RA_OF_ASC_NODE = 314.5695
ARG_OF_PERICENTER = 273.1498
MEAN_ANOMALY   = 330.2538

EPHEMERIS_TYPE = 0
CLASSIFICATION_TYPE = U
NORAD_CAT_ID   = 67915
ELEMENT_SET_NO = 999
REV_AT_EPOCH   = 195
BSTAR          = -.30569E-2
MEAN_MOTION_DOT = -.1430454E-1
MEAN_MOTION_DDOT = .61623E-3

CCSDS_OMM_VERS = 2.0
CREATION_DATE  = 
ORIGINATOR     = 

OBJECT_NAME    = STARLINK-36721
OBJECT_ID      = 2026-036N
CENTER_NAME    = EARTH
REF_FRAME      = TEME
TIME_SYSTEM    = UTC
MEAN_ELEMENT_THEORY = SGP/SGP4

EPOCH          = 2026-02-27T04:00:01.999584
MEAN_MOTION    = 15.98035738
ECCENTRICITY   = .0001901
INCLINATION    = 42.9975
RA_OF_ASC_NODE = 314.5623
ARG_OF_PERICENTER = 271.8478
MEAN_ANOMALY   = 334.4382

EPHEMERIS_TYPE = 0
CLASSIFICATION_TYPE = U
NORAD_CAT_ID   = 67916
ELEMENT_SET_NO = 999
REV_AT_EPOCH   = 195
BSTAR          = -.29626E-2
MEAN_MOTION_DOT = -.1408058E-1
MEAN_MOTION_DDOT = .60036E-3

CCSDS_OMM_VERS = 2.0
CREATION_DATE  = 
ORIGINATOR     = 

OBJECT_NAME    = STARLINK-36722
OBJECT_ID      = 2026-036P
CENTER_NAME    = EARTH
REF_FRAME      = TEME
TIME_SYSTEM    = UTC
MEAN_ELEMENT_THEORY = SGP/SGP4

EPOCH          = 2026-02-27T04:00:01.999584
MEAN_MOTION    = 15.98178368
ECCENTRICITY   = .0001945
INCLINATION    = 42.9974
RA_OF_ASC_NODE = 314.5588
ARG_OF_PERICENTER = 271.1451
MEAN_ANOMALY   = 336.5043

EPHEMERIS_TYPE = 0
CLASSIFICATION_TYPE = U
NORAD_CAT_ID   = 67917
ELEMENT_SET_NO = 999
REV_AT_EPOCH   = 195
BSTAR          = -.29692E-2
MEAN_MOTION_DOT = -.1422379E-1
MEAN_MOTION_DDOT = .61253E-3

CCSDS_OMM_VERS = 2.0
CREATION_DATE  = 
ORIGINATOR     = 

OBJECT_NAME    = STARLINK-36341
OBJECT_ID      = 2026-036Q
CENTER_NAME    = EARTH
REF_FRAME      = TEME
TIME_SYSTEM    = UTC
MEAN_ELEMENT_THEORY = SGP/SGP4

EPOCH          = 2026-02-27T04:00:01.999584
MEAN_MOTION    = 15.98443559
ECCENTRICITY   = .0001929
INCLINATION    = 42.9975
RA_OF_ASC_NODE = 314.5519
ARG_OF_PERICENTER = 273.0345
MEAN_ANOMALY   = 337.3849

EPHEMERIS_TYPE = 0
CLASSIFICATION_TYPE = U
NORAD_CAT_ID   = 67918
ELEMENT_SET_NO = 999
REV_AT_EPOCH   = 195
BSTAR          = -.2883E-2
MEAN_MOTION_DOT = -.1402019E-1
MEAN_MOTION_DDOT = .5982E-3

CCSDS_OMM_VERS = 2.0
CREATION_DATE  = 
ORIGINATOR     = 

OBJECT_NAME    = STARLINK-36663
OBJECT_ID      = 2026-036R
CENTER_NAME    = EARTH
REF_FRAME      = TEME
TIME_SYSTEM    = UTC
MEAN_ELEMENT_THEORY = SGP/SGP4

EPOCH          = 2026-02-27T04:00:01.999584
MEAN_MOTION    = 15.98308300
ECCENTRICITY   = .0001898
INCLINATION    = 42.9975
RA_OF_ASC_NODE = 314.5553
ARG_OF_PERICENTER = 273.6042
MEAN_ANOMALY   = 335.4317

EPHEMERIS_TYPE = 0
CLASSIFICATION_TYPE = U
NORAD_CAT_ID   = 67919
ELEMENT_SET_NO = 999
REV_AT_EPOCH   = 195
BSTAR          = -.29146E-2
MEAN_MOTION_DOT = -.1406609E-1
MEAN_MOTION_DDOT = .60095E-3

CCSDS_OMM_VERS = 2.0
CREATION_DATE  = 
ORIGINATOR     = 

OBJECT_NAME    = STARLINK-36375
OBJECT_ID      = 2026-036S
CENTER_NAME    = EARTH
REF_FRAME      = TEME
TIME_SYSTEM    = UTC
MEAN_ELEMENT_THEORY = SGP/SGP4

EPOCH          = 2026-02-27T04:00:01.999584
MEAN_MOTION    = 15.98583556
ECCENTRICITY   = .0001854
INCLINATION    = 42.9975
RA_OF_ASC_NODE = 314.5483
ARG_OF_PERICENTER = 272.3095
MEAN_ANOMALY   = 339.5877

EPHEMERIS_TYPE = 0
CLASSIFICATION_TYPE = U
NORAD_CAT_ID   = 67920
ELEMENT_SET_NO = 999
REV_AT_EPOCH   = 195
BSTAR          = -.28425E-2
MEAN_MOTION_DOT = -.1393388E-1
MEAN_MOTION_DDOT = .59234E-3

CCSDS_OMM_VERS = 2.0
CREATION_DATE  = 
ORIGINATOR     = 

OBJECT_NAME    = STARLINK-36405
OBJECT_ID      = 2026-036T
CENTER_NAME    = EARTH
REF_FRAME      = TEME
TIME_SYSTEM    = UTC
MEAN_ELEMENT_THEORY = SGP/SGP4

EPOCH          = 2026-02-27T04:00:01.999584
MEAN_MOTION    = 15.98709955
ECCENTRICITY   = .000189
INCLINATION    = 42.9976
RA_OF_ASC_NODE = 314.5450
ARG_OF_PERICENTER = 268.9596
MEAN_ANOMALY   = 344.2016

EPHEMERIS_TYPE = 0
CLASSIFICATION_TYPE = U
NORAD_CAT_ID   = 67921
ELEMENT_SET_NO = 999
REV_AT_EPOCH   = 195
BSTAR          = -.28192E-2
MEAN_MOTION_DOT = -.1391847E-1
MEAN_MOTION_DDOT = .59193E-3

CCSDS_OMM_VERS = 2.0
CREATION_DATE  = 
ORIGINATOR     = 

OBJECT_NAME    = STARLINK-36383
OBJECT_ID      = 2026-036U
CENTER_NAME    = EARTH
REF_FRAME      = TEME
TIME_SYSTEM    = UTC
MEAN_ELEMENT_THEORY = SGP/SGP4

EPOCH          = 2026-02-27T04:00:01.999584
MEAN_MOTION    = 15.98843842
ECCENTRICITY   = .0001937
INCLINATION    = 42.9977
RA_OF_ASC_NODE = 314.5413
ARG_OF_PERICENTER = 272.9977
MEAN_ANOMALY   = 341.6656

EPHEMERIS_TYPE = 0
CLASSIFICATION_TYPE = U
NORAD_CAT_ID   = 67922
ELEMENT_SET_NO = 999
REV_AT_EPOCH   = 195
BSTAR          = -.27625E-2
MEAN_MOTION_DOT = -.1374471E-1
MEAN_MOTION_DDOT = .57927E-3

