STARLINK-36736          
1 67911U 26036H   26058.16668981 -.01449846  62884-3 -31737-2 0  9999
2 67911  42.9972 314.5805 0001863 273.8272 325.1909 15.97331972  1955
STARLINK-36676          
1 67912U 26036J   26058.16668981 -.01432708  61608-3 -31134-2 0  9993
2 67912  42.9973 314.5773 0001839 273.1099 327.2188 15.97460430  1958
STARLINK-36690          
1 67913U 26036K   26058.16668981 -.01421775  60841-3 -30644-2 0  9999
2 67913  42.9973 314.5735 0001841 270.4126 331.4534 15.97606522  1957
STARLINK-36724          
1 67914U 26036L   26058.16668981 -.01418599  60768-3 -30102-2 0  9997
2 67914  42.9972 314.5661 0001897 272.8625 331.8066 15.97885373  1953
STARLINK-36723          
1 67915U 26036M   26058.16668981 -.01430454  61623-3 -30569-2 0  9990
2 67915  42.9974 314.5695 0001910 273.1498 330.2538 15.97760807  1952
STARLINK-36721          
1 67916U 26036N   26058.16668981 -.01408058  60036-3 -29626-2 0  9995
2 67916  42.9975 314.5623 0001901 271.8478 334.4382 15.98035738  1950
STARLINK-36722          
1 67917U 26036P   26058.16668981 -.01422379  61253-3 -29692-2 0  9993
2 67917  42.9974 314.5588 0001945 271.1451 336.5043 15.98178368  1956
STARLINK-36341          
1 67918U 26036Q   26058.16668981 -.01402019  59820-3 -28830-2 0  9993
2 67918  42.9975 314.5519 0001929 273.0345 337.3849 15.98443559  1957
STARLINK-36663          
1 67919U 26036R   26058.16668981 -.01406609  60095-3 -29146-2 0  9990
2 67919  42.9975 314.5553 0001898 273.6042 335.4317 15.98308300  1954
STARLINK-36375          
1 67920U 26036S   26058.16668981 -.01393388  59234-3 -28425-2 0  9993
2 67920  42.9975 314.5483 0001854 272.3095 339.5877 15.98583556  1958
STARLINK-36405          
1 67921U 26036T   26058.16668981 -.01391847  59193-3 -28192-2 0  9997
2 67921  42.9976 314.5450 0001890 268.9596 344.2016 15.98709955  1952
STARLINK-36383          
1 67922U 26036U   26058.16668981 -.01374471  57927-3 -27625-2 0  9995
2 67922  42.9977 314.5413 0001937 272.9977 341.6656 15.98843842  1958
